GLOBALSTAR M067         
1 32263U 07048A   24180.66260213 -.00000053  00000+0  32682-3 0  9998
2 32263  51.9745 350.3551 0000477  24.3193  56.2959 12.40648337765609
GLOBALSTAR M070         
1 32264U 07048B   24180.61438411 -.00000065  00000+0  21673-3 0  9992
2 32264  51.9739 125.6088 0000773  39.6058 131.2160 12.62294932769995
GLOBALSTAR M066         
1 32265U 07048C   24180.79950581 -.00000078  00000+0  14302-3 0  9994
2 32265  51.9695 347.0114 0000970 118.9040 347.7857 12.62264352771306
GLOBALSTAR M068         
1 32266U 07048D   24180.57792397 -.00000027  00000+0  42782-3 0  9997
2 32266  51.9900 300.1496 0001539  99.2024 275.0216 12.62792728772883
GLOBALSTAR M079         
1 37188U 10054A   24180.92807597 -.00000078  00000+0  14393-3 0  9997
2 37188  52.0024 135.1616 0000212 345.9873  34.8393 12.62271308631843
GLOBALSTAR M074         
1 37189U 10054B   24180.59215012 -.00000089  00000+0  82246-4 0  9991
2 37189  52.0000 135.5628 0000390  32.5830 140.0621 12.62269813632476
GLOBALSTAR M076         
1 37190U 10054C   24180.61794265 -.00000118  00000+0 -81618-4 0  9994
2 37190  52.0021 135.6223 0000559 339.6326 191.2204 12.62262247632122
GLOBALSTAR M077         
1 37191U 10054D   24180.90044157 -.00000089  00000+0  80563-4 0  9999
2 37191  52.0079  91.5164 0000687  45.5818  29.5584 12.62274120632533
